CCSDS_OMM_VERS,COMMENT,CREATION_DATE,ORIGINATOR,OBJECT_NAME,OBJECT_ID,CENTER_NAME,REF_FRAME,TIME_SYSTEM,MEAN_ELEMENT_THEORY,EPOCH,MEAN_MOTION,ECCENTRICITY,INCLINATION,RA_OF_ASC_NODE,ARG_OF_PERICENTER,MEAN_ANOMALY,EPHEMERIS_TYPE,CLASSIFICATION_TYPE,NORAD_CAT_ID,ELEMENT_SET_NO,REV_AT_EPOCH,BSTAR,MEAN_MOTION_DOT,MEAN_MOTION_DDOT,SEMIMAJOR_AXIS,PERIOD,APOAPSIS,PERIAPSIS,OBJECT_TYPE,RCS_SIZE,COUNTRY_CODE,LAUNCH_DATE,SITE,DECAY_DATE,FILE,GP_ID,TLE_LINE0,TLE_LINE1,TLE_LINE2
"2.0","GENERATED VIA SPACE-TRACK.ORG API","2020-08-10T17:07:32","18 SPCS","ORBCOMM FM 30","1999-065A","EARTH","TEME","UTC","SGP4","2020-08-10T12:52:46.996320","14.32899542","0.00045760","45.0325","153.3721","197.3747","162.6944","0","U","25980","999","8011","0.00004911200000","-0.00000005","0.0000000000000","7160.192","100.495","785.333","778.780","PAYLOAD","MEDIUM","ORB","1999-12-04","AFETR","","2799329","159130025","0 ORBCOMM FM 30","1 25980U 99065A   20223.53665505 -.00000005 +00000-0 +49112-4 0  9994","2 25980 045.0325 153.3721 0004576 197.3747 162.6944 14.32899542080116"
"2.0","GENERATED VIA SPACE-TRACK.ORG API","2020-08-10T17:07:32","18 SPCS","CZ-4 DEB","1999-057SK","EARTH","TEME","UTC","SGP4","2020-08-10T07:24:12.009312","14.46909095","0.01164840","98.7023","239.3573","25.2001","347.4979","0","U","35331","999","34719","0.00012088000000","0.00000425","0.0000000000000","7113.898","99.522","818.629","652.898","DEBRIS","SMALL","PRC","1999-10-14","TSC","","2799329","159137715","0 CZ-4 DEB","1 35331U 99057SK  20223.30847233 +.00000425 +00000-0 +12088-3 0  9997","2 35331 098.7023 239.3573 0116484 025.2001 347.4979 14.46909095347196"
"2.0","GENERATED VIA SPACE-TRACK.ORG API","2020-08-10T14:26:10","18 SPCS","ORBCOMM FM 30","1999-065A","EARTH","TEME","UTC","SGP4","2020-08-10T06:11:11.320224","14.32899456","0.00045580","45.0324","154.6827","196.0140","164.0563","0","U","25980","999","8060","0.00005086300000","-0.00000001","0.0000000000000","7160.192","100.495","785.321","778.793","PAYLOAD","MEDIUM","ORB","1999-12-04","AFETR","","2799211","159120279","0 ORBCOMM FM 30","1 25980U 99065A   20223.25776991 -.00000001  00000-0  50863-4 0  9996","2 25980  45.0324 154.6827 0004558 196.0140 164.0563 14.32899456 80600"
"2.0","GENERATED VIA SPACE-TRACK.ORG API","2020-08-09T22:26:10","18 SPCS","CZ-4 DEB","1999-057SK","EARTH","TEME","UTC","SGP4","2020-08-09T20:17:31.078176","14.46908633","0.01165040","98.7023","238.8814","26.5903","95.9310","0","U","35331","999","92490","0.00012046000000","0.00000424","0.0000000000000","7113.900","99.522","818.645","652.885","DEBRIS","SMALL","PRC","1999-10-14","TSC","","2798815","159071510","0 CZ-4 DEB","1 35331U 99057SK  20222.84549859  .00000424  00000-0  12046-3 0  9991","2 35331  98.7023 238.8814 0116504  26.5903  95.9310 14.46908633924907"
"2.0","GENERATED VIA SPACE-TRACK.ORG API","2020-08-10T02:45:10","18 SPCS","ORBCOMM FM 30","1999-065A","EARTH","TEME","UTC","SGP4","2020-08-09T20:08:47.793120","14.32899384","0.00045250","45.0323","156.6486","194.1804","165.8916","0","U","25980","999","8001","0.00005512900000","0.00000011","0.0000000000000","7160.192","100.495","785.297","778.817","PAYLOAD","MEDIUM","ORB","1999-12-04","AFETR","","2798970","159081816","0 ORBCOMM FM 30","1 25980U 99065A   20222.83944205 +.00000011 +00000-0 +55129-4 0  9994","2 25980 045.0323 156.6486 0004525 194.1804 165.8916 14.32899384080018"
"2.0","GENERATED VIA SPACE-TRACK.ORG API","2020-08-09T14:36:10","18 SPCS","ORBCOMM FM 30","1999-065A","EARTH","TEME","UTC","SGP4","2020-08-09T05:05:12.513696","14.32899207","0.00044770","45.0322","159.5976","191.2006","168.8741","0","U","25980","999","8045","0.00005776900000","0.00000018","0.0000000000000","7160.193","100.495","785.263","778.852","PAYLOAD","MEDIUM","ORB","1999-12-04","AFETR","","2798646","159047700","0 ORBCOMM FM 30","1 25980U 99065A   20222.21195039  .00000018  00000-0  57769-4 0  9998","2 25980  45.0322 159.5976 0004477 191.2006 168.8741 14.32899207 80452"
"2.0","GENERATED VIA SPACE-TRACK.ORG API","2020-08-09T01:23:25","18 SPCS","ORBCOMM FM 30","1999-065A","EARTH","TEME","UTC","SGP4","2020-08-08T20:43:12.903456","14.32899145","0.00044520","45.0321","161.2358","189.6007","170.4756","0","U","25980","999","7987","0.00006050600000","0.00000026","0.0000000000000","7160.193","100.495","785.246","778.870","PAYLOAD","MEDIUM","ORB","1999-12-04","AFETR","","2798367","159028594","0 ORBCOMM FM 30","1 25980U 99065A   20221.86334379 +.00000026 +00000-0 +60506-4 0  9992","2 25980 045.0321 161.2358 0004452 189.6007 170.4756 14.32899145079870"
"2.0","GENERATED VIA SPACE-TRACK.ORG API","2020-08-08T17:49:11","18 SPCS","ORBCOMM FM 30","1999-065A","EARTH","TEME","UTC","SGP4","2020-08-08T05:39:37.613664","14.32898978","0.00044000","45.0320","164.1848","186.6296","173.4493","0","U","25980","999","7978","0.00006199400000","0.00000030","0.0000000000000","7160.194","100.495","785.209","778.908","PAYLOAD","MEDIUM","ORB","1999-12-04","AFETR","","2798220","159004628","0 ORBCOMM FM 30","1 25980U 99065A   20221.23585201 +.00000030 +00000-0 +61994-4 0  9992","2 25980 045.0320 164.1848 0004400 186.6296 173.4493 14.32898978079789"
"2.0","GENERATED VIA SPACE-TRACK.ORG API","2020-08-08T06:26:10","18 SPCS","ORBCOMM FM 30","1999-065A","EARTH","TEME","UTC","SGP4","2020-08-08T03:59:13.690752","14.32898977","0.00043980","45.0320","164.5124","186.3242","173.7550","0","U","25980","999","8030","0.00006332700000","0.00000034","0.0000000000000","7160.194","100.495","785.208","778.910","PAYLOAD","MEDIUM","ORB","1999-12-04","AFETR","","2797862","158989303","0 ORBCOMM FM 30","1 25980U 99065A   20221.16613068  .00000034  00000-0  63327-4 0  9993","2 25980  45.0320 164.5124 0004398 186.3242 173.7550 14.32898977 80300"
"2.0","GENERATED VIA SPACE-TRACK.ORG API","2020-08-08T04:38:54","18 SPCS","ORBCOMM FM 30","1999-065A","EARTH","TEME","UTC","SGP4","2020-08-07T21:17:37.999104","14.32898892","0.00043800","45.0320","165.8230","185.0675","175.0128","0","U","25980","999","7973","0.00006261500000","0.00000032","0.0000000000000","7160.194","100.495","785.195","778.923","PAYLOAD","MEDIUM","ORB","1999-12-04","AFETR","","2797810","158975269","0 ORBCOMM FM 30","1 25980U 99065A   20220.88724536 +.00000032 +00000-0 +62615-4 0  9991","2 25980 045.0320 165.8230 0004380 185.0675 175.0128 14.32898892079736"
"2.0","GENERATED VIA SPACE-TRACK.ORG API","2020-08-07T17:49:53","18 SPCS","ORBCOMM FM 30","1999-065A","EARTH","TEME","UTC","SGP4","2020-08-07T06:14:02.692896","14.32898741","0.00043380","45.0319","168.7720","182.1454","177.9375","0","U","25980","999","7964","0.00006284200000","0.00000032","0.0000000000000","7160.194","100.495","785.165","778.953","PAYLOAD","MEDIUM","ORB","1999-12-04","AFETR","","2797633","158951811","0 ORBCOMM FM 30","1 25980U 99065A   20220.25975339 +.00000032 +00000-0 +62842-4 0  9993","2 25980 045.0319 168.7720 0004338 182.1454 177.9375 14.32898741079644"
"2.0","GENERATED VIA SPACE-TRACK.ORG API","2020-08-07T06:36:09","18 SPCS","ORBCOMM FM 30","1999-065A","EARTH","TEME","UTC","SGP4","2020-08-06T23:32:26.993472","14.32898652","0.00043270","45.0319","170.0826","180.9577","179.1262","0","U","25980","999","8013","0.00006043700000","0.00000026","0.0000000000000","7160.195","100.495","785.158","778.961","PAYLOAD","MEDIUM","ORB","1999-12-04","AFETR","","2797318","158937142","0 ORBCOMM FM 30","1 25980U 99065A   20219.98086798  .00000026  00000-0  60437-4 0  9994","2 25980  45.0319 170.0826 0004327 180.9577 179.1262 14.32898652 80133"
"2.0","GENERATED VIA SPACE-TRACK.ORG API","2020-08-07T02:52:56","18 SPCS","ORBCOMM FM 30","1999-065A","EARTH","TEME","UTC","SGP4","2020-08-06T21:52:03.070560","14.32898640","0.00043140","45.0319","170.4102","180.6376","179.4466","0","U","25980","999","7959","0.00006091200000","0.00000027","0.0000000000000","7160.195","100.495","785.149","778.971","PAYLOAD","MEDIUM","ORB","1999-12-04","AFETR","","2797264","158921662","0 ORBCOMM FM 30","1 25980U 99065A   20219.91114665 +.00000027 +00000-0 +60912-4 0  9991","2 25980 045.0319 170.4102 0004314 180.6376 179.4466 14.32898640079598"
"2.0","GENERATED VIA SPACE-TRACK.ORG API","2020-08-07T02:52:56","18 SPCS","CZ-4 DEB","1999-057SK","EARTH","TEME","UTC","SGP4","2020-08-06T20:55:05.179008","14.46905615","0.01167530","98.7022","235.8248","35.4903","85.2808","0","U","35331","999","34669","0.00012578000000","0.00000445","0.0000000000000","7113.910","99.522","818.832","652.718","DEBRIS","SMALL","PRC","1999-10-14","TSC","","2797264","158926980","0 CZ-4 DEB","1 35331U 99057SK  20219.87158772 +.00000445 +00000-0 +12578-3 0  9993","2 35331 098.7022 235.8248 0116753 035.4903 085.2808 14.46905615346694"
"2.0","GENERATED VIA SPACE-TRACK.ORG API","2020-08-06T18:58:56","18 SPCS","ORBCOMM FM 30","1999-065A","EARTH","TEME","UTC","SGP4","2020-08-06T06:48:27.753984","14.32898463","0.00042660","45.0319","173.3593","177.7078","182.3788","0","U","25980","999","7950","0.00005828800000","0.00000020","0.0000000000000","7160.195","100.495","785.115","779.006","PAYLOAD","MEDIUM","ORB","1999-12-04","AFETR","","2797055","158895819","0 ORBCOMM FM 30","1 25980U 99065A   20219.28365456 +.00000020 +00000-0 +58288-4 0  9993","2 25980 045.0319 173.3593 0004266 177.7078 182.3788 14.32898463079500"
"2.0","GENERATED VIA SPACE-TRACK.ORG API","2020-08-06T03:20:17","18 SPCS","ORBCOMM FM 30","1999-065A","EARTH","TEME","UTC","SGP4","2020-08-05T22:26:28.125600","14.32898369","0.00042390","45.0319","174.9975","176.2007","183.8872","0","U","25980","999","7945","0.00005633500000","0.00000014","0.0000000000000","7160.196","100.495","785.096","779.025","PAYLOAD","MEDIUM","ORB","1999-12-04","AFETR","","2796777","158872211","0 ORBCOMM FM 30","1 25980U 99065A   20218.93504775 +.00000014 +00000-0 +56335-4 0  9997","2 25980 045.0319 174.9975 0004239 176.2007 183.8872 14.32898369079456"
